CSS (TIANHE)            
1 48274U 21035A   23313.19430374  .00042518  00000+0  48572-3 0  9997
2 48274  41.4726 353.0724 0003347  90.0523 270.0700 15.61392445144501
